{
  "norad_id": 66895,
  "name": "STARLINK-35971",
  "history": [
    {
      "epoch": "2026-03-28T20:20:53.592000Z",
      "apogee_km": 476.00845716858385,
      "perigee_km": 474.4262917776932,
      "latitude_deg": 1.4100714930860234e-05,
      "longitude_deg": 163.95700289936465,
      "height_km": 475.9748055145938,
      "semi_major_axis_km": 6853.354374473139,
      "eccentricity": 0.00011543,
      "inclination_deg": 53.1581,
      "raan_deg": 295.4427,
      "arg_perigee_deg": 79.7607,
      "mean_anomaly_deg": 280.3524,
      "mean_motion_rev_day": 15.30199228
    },
    {
      "epoch": "2026-03-28T23:29:00.165696Z",
      "apogee_km": 475.9878137700198,
      "perigee_km": 474.4663669419606,
      "latitude_deg": -1.992970303370533e-05,
      "longitude_deg": 116.19533067302349,
      "height_km": 476.00438294616254,
      "semi_major_axis_km": 6853.36409035599,
      "eccentricity": 0.000111,
      "inclination_deg": 53.1584,
      "raan_deg": 294.8372,
      "arg_perigee_deg": 80.8591,
      "mean_anomaly_deg": 279.2535,
      "mean_motion_rev_day": 15.30195974
    },
    {
      "epoch": "2026-03-29T22:59:48.122304Z",
      "apogee_km": 475.61437667136397,
      "perigee_km": 474.7856711584309,
      "latitude_deg": 1.5329309867714284e-06,
      "longitude_deg": 117.97847015117344,
      "height_km": 476.104624566017,
      "semi_major_axis_km": 6853.337023914897,
      "eccentricity": 6.046e-05,
      "inclination_deg": 53.1586,
      "raan_deg": 290.2858,
      "arg_perigee_deg": 90.801,
      "mean_anomaly_deg": 269.306,
      "mean_motion_rev_day": 15.30205039
    }
  ]
}